#aV2024  5 23  0  0  0.00000000     288 DD+AD WGS84 FIT  NGA
## 2315 345600.00000000   300.00000000 60453 0.0000000000000
+   31     2  3  4  5  6  7  8  9 10 11 12 13 14 15 16 17 18
+         19 20 21 22 23 24 25 26 27 28 29 30 31 32  0  0  0
+          0  0  0  0  0  0  0  0  0  0  0  0  0  0  0  0  0
+          0  0  0  0  0  0  0  0  0  0  0  0  0  0  0  0  0
+          0  0  0  0  0  0  0  0  0  0  0  0  0  0  0  0  0
++         2  2  2  2  2  2  2  2  2  2  2  2  2  2  2  2  2
++         2  2  2  2  2  2  2  2  2  2  2  2  2  2  0  0  0
++         0  0  0  0  0  0  0  0  0  0  0  0  0  0  0  0  0
++         0  0  0  0  0  0  0  0  0  0  0  0  0  0  0  0  0
++         0  0  0  0  0  0  0  0  0  0  0  0  0  0  0  0  0
%c cc cc ccc ccc cccc cccc cccc cccc ccccc ccccc ccccc ccccc
%c cc cc ccc ccc cccc cccc cccc cccc ccccc ccccc ccccc ccccc
%f  0.0000000  0.000000000  0.00000000000  0.000000000000000
%f  0.0000000  0.000000000  0.00000000000  0.000000000000000
%i    0    0    0    0      0      0      0      0         0
%i    0    0    0    0      0      0      0      0         0
/*      NGA, ST. LOUIS,MO.                                  
/*   EPHEMERIS COMPUTED FROM 2 DAYS OF DATA                 
/*   EPOCHA v9 SMOOTHER                                     
/*   G2296 IERS2010 SATIGS SATAPC                           
*  2024  5 23 11 55  0.00000000
P  2  14719.905802 -21092.027234   6455.276961   -431.104284                    
V  2   -804.016967   8049.507407  30664.190043      0.068402                    
P  3  14324.171692 -12427.591566 -18699.040913    377.781671                    
V  3  23408.138953   1109.309300  17457.070912      0.191672                    
P  4   5949.979646 -17180.079181 -19297.924528    367.348079                    
V  4  12815.582005  21010.811204 -14870.215825      0.083375                    
P  5 -25189.196035   5618.701969   6289.981516   -173.721202                    
V  5  -8301.727430  -1898.378533 -30593.026180     -0.013500                    
P  6 -10921.121603  -9936.476650 -22008.628718    258.270660                    
V  6  14484.808822 -23988.538059   3738.752335     -0.200298                    
P  7   2374.634538 -23024.354935  13107.011775   -134.935706                    
V  7  10316.945251 -12560.193808 -25382.197232     -0.080781                    
P  8  13322.038997  -7605.330743  21577.083769    193.205681                    
V  8  14862.318473  23355.272835   -519.978566      0.197280                    
P  9  -5485.721872 -23566.104439 -10973.398942    206.981733                    
V  9   9419.662303  10447.302377 -27395.787774      0.142371                    
P 10  18208.719563  10841.840456  16418.361509    -28.210105                    
V 10 -20275.763948   1207.838686  21655.490676     -0.069953                    
P 11 -17915.813436   3334.668823 -19281.897288   -668.980334                    
V 11  12095.525408 -21381.952417 -14970.008136     -0.089779                    
P 12 -16760.026052  11170.465228 -17569.165674   -507.826515                    
V 12 -21624.434819  -2995.108211  19082.444573     -0.032970                    
P 13 -16217.124406  -2167.674003  20764.571203    652.642352                    
V 13  -9464.882358 -25037.484527  -9680.295952      0.028513                    
P 14 -14426.892919 -13289.523456  18036.769642    407.705351                    
V 14  22831.564006  -1221.375324  17185.830673      0.092709                    
P 15 -12344.764344   9431.192997  21048.733184    162.127669                    
V 15 -17644.767997 -21738.406755   -402.836407      0.041357                    
P 16  26552.602573   -141.026868   3327.728604   -284.130356                    
V 16   4370.768984   2758.292606 -31130.182659      0.101010                    
P 17 -12842.070340 -23065.026074  -1548.857725    703.661844                    
V 17   1306.994613  -3439.338453  31960.911955     -0.038943                    
P 18  -2831.727492  22614.234119  13481.898379   -614.826229                    
V 18 -10518.673044  13697.916202 -25396.851055     -0.055352                    
P 19 -16469.064234 -18067.950376 -11032.392283    486.066569                    
V 19  -3849.636279 -13174.387401  27393.081820      0.053552                    
P 20 -26038.804970   1504.997435  -4522.440169    375.555667                    
V 20   5195.005403  -4101.034171 -31001.599369     -0.013721                    
P 21  16454.541520 -17062.917922  11295.009738    119.934900                    
V 21  -3062.839024  14050.773622  27727.468000     -0.022743                    
P 22 -20582.145024 -10838.124989  12965.744838    -17.530687                    
V 22  16043.259174   -976.985192  25765.370033     -0.051863                    
P 23   5856.241514  14337.220032  21628.286710    232.466430                    
V 23 -27292.927672   1243.792090   6381.382124      0.093542                    
P 24 -14933.174590  20358.082493   7116.146816   -472.113298                    
V 24    445.195547 -10466.406352  29580.972553     -0.032333                    
P 25  -6461.043585  15201.205082 -21089.963486    496.206240                    
V 25 -26108.538167   -294.768319   8171.725501      0.006550                    
P 26  24315.586887   5333.373272  -9914.500902    148.587014                    
V 26 -12013.588492   4021.594586 -27356.381622     -0.057959                    
P 27  18071.604745   4891.203342  18712.697742    -25.284123                    
V 27  11295.121556  21461.667265 -15852.069347     -0.016823                    
P 28  10136.425044  12457.230903 -21165.580055   -256.336456                    
V 28 -13138.943277  23424.259668   7495.722537     -0.165717                    
P 29   1242.532774  23036.565335 -13109.989273   -597.321992                    
V 29  -9107.549458 -14013.919010 -25703.001872      0.015287                    
P 30  -6682.129139 -17016.703026  19324.784370   -385.951534                    
V 30  13588.075556 -20339.639549 -13581.742794      0.059739                    
P 31  16555.287479   1380.561632 -21013.118507   -227.729772                    
V 31 -12945.239769  22712.366225  -8407.237712      0.001346                    
P 32  15735.223677  21151.040788  -3814.898791   -617.891902                    
V 32    365.731915   5698.634174  31153.901071      0.005698                    
EOF
